#aV2019 10 25  0  0  0.00000000     288 DD+AD WGS84 FIT  NGA
## 2076 432000.00000000   300.00000000 58781 0.0000000000000
+   32     1  2  3  4  5  6  7  8  9 10 11 12 13 14 15 16 17
+         18 19 20 21 22 23 24 25 26 27 28 29 30 31 32  0  0
+          0  0  0  0  0  0  0  0  0  0  0  0  0  0  0  0  0
+          0  0  0  0  0  0  0  0  0  0  0  0  0  0  0  0  0
+          0  0  0  0  0  0  0  0  0  0  0  0  0  0  0  0  0
++         2  2  2  2  2  2  2  2  2  2  2  2  2  2  2  2  2
++         2  2  2  2  2  2  2  2  2  2  2  2  2  2  2  0  0
++         0  0  0  0  0  0  0  0  0  0  0  0  0  0  0  0  0
++         0  0  0  0  0  0  0  0  0  0  0  0  0  0  0  0  0
++         0  0  0  0  0  0  0  0  0  0  0  0  0  0  0  0  0
%c cc cc ccc ccc cccc cccc cccc cccc ccccc ccccc ccccc ccccc
%c cc cc ccc ccc cccc cccc cccc cccc ccccc ccccc ccccc ccccc
%f  0.0000000  0.000000000  0.00000000000  0.000000000000000
%f  0.0000000  0.000000000  0.00000000000  0.000000000000000
%i    0    0    0    0      0      0      0      0         0
%i    0    0    0    0      0      0      0      0         0
/*      NGA, ST. LOUIS,MO.                                  
/*   EPHEMERIS COMPUTED FROM 2 DAYS OF DATA                 
/*   EPOCHA v5 SMOOTHER                                     
/*   G1762 IERS2010 SATAF SATAPC                            
*  2019 10 25  1 10  0.00000000
P  1 -19160.568948 -14130.483252 -12303.030508   -174.198670                    
V  1  15016.651135   2623.417869 -26535.428463     -0.130380                    
P  2  -2372.258201  15433.817218  22109.726782   -332.845720                    
V  2 -26050.932267  -5463.744715    924.280708     -0.078190                    
P  3 -13332.904041 -19888.095223  11533.161809    -26.860280                    
V  3  -1426.783011 -14804.354511 -26951.674572     -0.051638                    
P  4 -21899.819993   8026.418911  12696.823663     -2.629266                    
V  4  10319.211826 -12601.693561  25786.539967     -0.030591                    
P  5   2368.937866  25473.952280   6605.851624     -2.677034                    
V  5  -5432.951604  -7420.804261  30127.270837     -0.003999                    
P  6 -17269.326848   8164.347714  18509.007647   -101.639650                    
V  6 -22179.447084  -7437.301996 -17428.113861     -0.125444                    
P  7 -26027.396336  -5906.732810  -2382.989004   -134.240047                    
V  7  -2454.492418  -3443.727883  31117.462987     -0.080759                    
P  8  -2514.967299 -17018.799420 -20139.028628    -11.059858                    
V  8  18893.018644 -17434.250735  12561.159965     -0.013250                    
P  9 -19113.222213    697.616318  18380.495426    -65.627007                    
V  9  15389.441238 -17790.200064  16625.146789     -0.100123                    
P 10  13195.726207  -8352.911640 -21393.254379   -107.598578                    
V 10   7415.056540  26317.809868  -5900.472495     -0.152079                    
P 11 -16422.889450 -11186.315488 -18001.326514   -468.224942                    
V 11  21360.540243  -6305.010023 -16341.887173      0.112328                    
P 12   9408.548870  23722.886674   7437.965559    190.600531                    
V 12   -197.085704   9871.519130 -30202.245154     -0.039089                    
P 13  -7601.048741  19718.576940 -16163.944465    -36.904196                    
V 13 -17247.142168  10878.646410  21607.952328      0.022461                    
P 14  17470.871280 -19269.634565   5193.854725    -54.296036                    
V 14   6603.584848  -1789.046131 -30958.441269      0.020843                    
P 15   5628.311022  16669.662891 -20085.774007   -277.507940                    
V 15 -17265.625951  18275.169591  10873.886336      0.027036                    
P 16   1668.675932 -24823.919221   8451.446305    -86.511460                    
V 16   4156.942178  10568.658110  29981.694344     -0.036667                    
P 17 -21465.906535  14751.852665  -4545.885686    150.370067                    
V 17   3337.005372  -5763.018224 -31634.487338      0.070738                    
P 18 -11507.523659 -15920.051568 -18426.539387     95.440429                    
V 18  22128.921615   3506.396841 -17233.626918      0.026707                    
P 19 -20041.139139  17341.560339   1627.522600   -249.126466                    
V 19  -3214.643254   -149.859470 -32127.951209      0.052234                    
P 20  17104.425878   2117.593307 -20353.676558    527.289540                    
V 20   8464.415142  24270.992474   9499.540525      0.001099                    
P 21  25702.885782   1686.377378  -5231.807228    -96.975391                    
V 21   6818.928215   4887.583528  30703.544829      0.061152                    
P 22 -11483.461440 -23650.480094   4347.185294   -766.634506                    
V 22   1763.395707  -6163.822952 -30302.474162     -0.029881                    
P 23 -12695.309513  -9490.715024  21677.652274   -159.521024                    
V 23  18693.591798 -19146.118843   2220.713607      0.022007                    
P 24  17728.493274  14430.763283 -13981.439665     -3.955218                    
V 24 -17500.961161  -1412.853551 -23588.308774     -0.005105                    
P 25  15634.674997  11846.511566  17813.000297    -16.107665                    
V 25   4251.023004  22579.148121 -18274.734412     -0.007520                    
P 26   6887.842761 -19374.424088  16688.454196     69.064190                    
V 26   7926.998610  19919.477174  20025.847275      0.085223                    
P 27   9037.107782 -21173.578187 -13082.372951    -98.294621                    
V 27  13187.768286 -10137.345618  26035.305105     -0.121244                    
P 28 -12909.758163   8512.362715 -21007.979807    757.807891                    
V 28  -4987.974340 -27591.154240  -7783.062625     -0.014081                    
P 29  17812.118574   1842.305899  19593.392240     62.326051                    
V 29 -18308.477264  16861.914550  15009.596168     -0.101752                    
P 30 -23160.504547   2434.506617 -12917.436961    -68.895015                    
V 30 -14820.281420  -7567.629881  24886.580119     -0.082793                    
P 31  15945.100999  -9213.039046  19286.105944      1.404574                    
V 31  22953.670078   8281.167447 -14561.717616     -0.025404                    
P 32  20787.124735 -15613.470918  -5031.703906    102.665155                    
V 32  -2516.123540   6683.815751 -30889.387537      0.126709                    
EOF
